[{"OBJECT_NAME":"STARLINK-30166","OBJECT_ID":"2023-119A","EPOCH":"2026-03-09T22:00:01.999584","MEAN_MOTION":15.20209688,"ECCENTRICITY":0.00015207,"INCLINATION":42.9996,"RA_OF_ASC_NODE":79.8686,"ARG_OF_PERICENTER":291.3826,"MEAN_ANOMALY":154.2975,"EPHEMERIS_TYPE":0,"CLASSIFICATION_TYPE":"U","NORAD_CAT_ID":57602,"ELEMENT_SET_NO":999,"REV_AT_EPOCH":578,"BSTAR":0.047916705,"MEAN_MOTION_DOT":0.01149875,"MEAN_MOTION_DDOT":0},{"OBJECT_NAME":"OBJECT D","OBJECT_ID":"2024-153D","EPOCH":"2026-03-09T23:34:15.763296","MEAN_MOTION":15.24738931,"ECCENTRICITY":0.00026819,"INCLINATION":97.6632,"RA_OF_ASC_NODE":204.2425,"ARG_OF_PERICENTER":164.3,"MEAN_ANOMALY":195.8321,"EPHEMERIS_TYPE":0,"CLASSIFICATION_TYPE":"U","NORAD_CAT_ID":60748,"ELEMENT_SET_NO":999,"REV_AT_EPOCH":8471,"BSTAR":0.00086014823,"MEAN_MOTION_DOT":0.00021266,"MEAN_MOTION_DDOT":0}]
